CCSDS_OMM_VERS = 2.0
CREATION_DATE  = 
ORIGINATOR     = 

OBJECT_NAME    = DELTA 2 R/B(1)
OBJECT_ID      = 1990-008B
CENTER_NAME    = EARTH
REF_FRAME      = TEME
TIME_SYSTEM    = UTC
MEAN_ELEMENT_THEORY = SGP/SGP4

EPOCH          = 2026-03-03T17:26:32.080416
MEAN_MOTION    = 15.55053481
ECCENTRICITY   = .0086795
INCLINATION    = 35.6034
RA_OF_ASC_NODE = 213.9608
ARG_OF_PERICENTER = 203.5175
MEAN_ANOMALY   = 156.1578

EPHEMERIS_TYPE = 0
CLASSIFICATION_TYPE = U
NORAD_CAT_ID   = 20453
ELEMENT_SET_NO = 999
REV_AT_EPOCH   = 92520
BSTAR          = .10838E-2
MEAN_MOTION_DOT = .90081E-3
MEAN_MOTION_DDOT = 0

CCSDS_OMM_VERS = 2.0
CREATION_DATE  = 
ORIGINATOR     = 

OBJECT_NAME    = COSMOS 2058
OBJECT_ID      = 1990-010A
CENTER_NAME    = EARTH
REF_FRAME      = TEME
TIME_SYSTEM    = UTC
MEAN_ELEMENT_THEORY = SGP/SGP4

EPOCH          = 2026-03-03T19:43:08.431968
MEAN_MOTION    = 15.11257293
ECCENTRICITY   = .0009794
INCLINATION    = 82.4666
RA_OF_ASC_NODE = 53.2088
ARG_OF_PERICENTER = 2.8143
MEAN_ANOMALY   = 357.3140

EPHEMERIS_TYPE = 0
CLASSIFICATION_TYPE = U
NORAD_CAT_ID   = 20465
ELEMENT_SET_NO = 999
REV_AT_EPOCH   = 94135
BSTAR          = .3351E-3
MEAN_MOTION_DOT = .5669E-4
MEAN_MOTION_DDOT = 0

CCSDS_OMM_VERS = 2.0
CREATION_DATE  = 
ORIGINATOR     = 

OBJECT_NAME    = SL-14 R/B
OBJECT_ID      = 1990-010B
CENTER_NAME    = EARTH
REF_FRAME      = TEME
TIME_SYSTEM    = UTC
MEAN_ELEMENT_THEORY = SGP/SGP4

EPOCH          = 2026-03-03T16:25:09.945696
MEAN_MOTION    = 14.83562870
ECCENTRICITY   = .0018918
INCLINATION    = 82.4992
RA_OF_ASC_NODE = 273.0315
ARG_OF_PERICENTER = 323.3212
MEAN_ANOMALY   = 36.6707

EPHEMERIS_TYPE = 0
CLASSIFICATION_TYPE = U
NORAD_CAT_ID   = 20466
ELEMENT_SET_NO = 999
REV_AT_EPOCH   = 92759
BSTAR          = .60144E-4
MEAN_MOTION_DOT = .52E-5
MEAN_MOTION_DDOT = 0

CCSDS_OMM_VERS = 2.0
CREATION_DATE  = 
ORIGINATOR     = 

OBJECT_NAME    = SL-14 R/B
OBJECT_ID      = 1990-018B
CENTER_NAME    = EARTH
REF_FRAME      = TEME
TIME_SYSTEM    = UTC
MEAN_ELEMENT_THEORY = SGP/SGP4

EPOCH          = 2026-03-03T13:28:06.173184
MEAN_MOTION    = 14.82136954
ECCENTRICITY   = .0017592
INCLINATION    = 82.5192
RA_OF_ASC_NODE = 228.8183
ARG_OF_PERICENTER = 110.6509
MEAN_ANOMALY   = 249.6593

EPHEMERIS_TYPE = 0
CLASSIFICATION_TYPE = U
NORAD_CAT_ID   = 20511
ELEMENT_SET_NO = 999
REV_AT_EPOCH   = 92167
BSTAR          = .83407E-4
MEAN_MOTION_DOT = .689E-5
MEAN_MOTION_DDOT = 0

CCSDS_OMM_VERS = 2.0
CREATION_DATE  = 
ORIGINATOR     = 

OBJECT_NAME    = HST
OBJECT_ID      = 1990-037B
CENTER_NAME    = EARTH
REF_FRAME      = TEME
TIME_SYSTEM    = UTC
MEAN_ELEMENT_THEORY = SGP/SGP4

EPOCH          = 2026-03-03T10:01:15.222720
MEAN_MOTION    = 15.29363841
ECCENTRICITY   = .00016951
INCLINATION    = 28.4702
RA_OF_ASC_NODE = 82.7831
ARG_OF_PERICENTER = 63.3001
MEAN_ANOMALY   = 296.7768

EPHEMERIS_TYPE = 0
CLASSIFICATION_TYPE = U
NORAD_CAT_ID   = 20580
ELEMENT_SET_NO = 999
REV_AT_EPOCH   = 77235
BSTAR          = .29940291E-3
MEAN_MOTION_DOT = .9009E-4
MEAN_MOTION_DDOT = 0

CCSDS_OMM_VERS = 2.0
CREATION_DATE  = 
ORIGINATOR     = 

OBJECT_NAME    = SL-16 R/B
OBJECT_ID      = 1990-046B
CENTER_NAME    = EARTH
REF_FRAME      = TEME
TIME_SYSTEM    = UTC
MEAN_ELEMENT_THEORY = SGP/SGP4

EPOCH          = 2026-03-03T18:13:04.701216
MEAN_MOTION    = 14.15014558
ECCENTRICITY   = .0016141
INCLINATION    = 71.0001
RA_OF_ASC_NODE = 310.3701
ARG_OF_PERICENTER = 307.5737
MEAN_ANOMALY   = 52.3919

EPHEMERIS_TYPE = 0
CLASSIFICATION_TYPE = U
NORAD_CAT_ID   = 20625
ELEMENT_SET_NO = 999
REV_AT_EPOCH   = 84755
BSTAR          = -.69916E-4
MEAN_MOTION_DOT = -.183E-5
MEAN_MOTION_DDOT = 0

CCSDS_OMM_VERS = 2.0
CREATION_DATE  = 
ORIGINATOR     = 

OBJECT_NAME    = COSMOS 2084
OBJECT_ID      = 1990-055A
CENTER_NAME    = EARTH
REF_FRAME      = TEME
TIME_SYSTEM    = UTC
MEAN_ELEMENT_THEORY = SGP/SGP4

EPOCH          = 2026-03-03T05:07:04.397376
MEAN_MOTION    = 15.05602026
ECCENTRICITY   = .00181087
INCLINATION    = 62.7926
RA_OF_ASC_NODE = 357.6650
ARG_OF_PERICENTER = 188.5844
MEAN_ANOMALY   = 171.4949

EPHEMERIS_TYPE = 0
CLASSIFICATION_TYPE = U
NORAD_CAT_ID   = 20663
ELEMENT_SET_NO = 999
REV_AT_EPOCH   = 93534
BSTAR          = .2616443E-3
MEAN_MOTION_DOT = .3603E-4
MEAN_MOTION_DDOT = 0

CCSDS_OMM_VERS = 2.0
CREATION_DATE  = 
ORIGINATOR     = 

OBJECT_NAME    = SL-6 R/B(2)
OBJECT_ID      = 1990-055D
CENTER_NAME    = EARTH
REF_FRAME      = TEME
TIME_SYSTEM    = UTC
MEAN_ELEMENT_THEORY = SGP/SGP4

EPOCH          = 2026-03-03T18:51:16.596864
MEAN_MOTION    = 15.03560947
ECCENTRICITY   = .0023842
INCLINATION    = 62.7819
RA_OF_ASC_NODE = 273.9292
ARG_OF_PERICENTER = 345.5629
MEAN_ANOMALY   = 14.4786

EPHEMERIS_TYPE = 0
CLASSIFICATION_TYPE = U
NORAD_CAT_ID   = 20666
ELEMENT_SET_NO = 999
REV_AT_EPOCH   = 93730
BSTAR          = .2086E-3
MEAN_MOTION_DOT = .2679E-4
MEAN_MOTION_DDOT = 0

CCSDS_OMM_VERS = 2.0
CREATION_DATE  = 
ORIGINATOR     = 

OBJECT_NAME    = SL-8 R/B
OBJECT_ID      = 1990-078B
CENTER_NAME    = EARTH
REF_FRAME      = TEME
TIME_SYSTEM    = UTC
MEAN_ELEMENT_THEORY = SGP/SGP4

EPOCH          = 2026-03-03T12:39:35.388288
MEAN_MOTION    = 14.88816306
ECCENTRICITY   = .0363742
INCLINATION    = 82.8989
RA_OF_ASC_NODE = 256.8532
ARG_OF_PERICENTER = 34.7004
MEAN_ANOMALY   = 327.7365

EPHEMERIS_TYPE = 0
CLASSIFICATION_TYPE = U
NORAD_CAT_ID   = 20775
ELEMENT_SET_NO = 999
REV_AT_EPOCH   = 80838
BSTAR          = .54752E-3
MEAN_MOTION_DOT = .18627E-3
MEAN_MOTION_DDOT = 0

CCSDS_OMM_VERS = 2.0
CREATION_DATE  = 
ORIGINATOR     = 

OBJECT_NAME    = SL-8 R/B
OBJECT_ID      = 1991-006B
CENTER_NAME    = EARTH
REF_FRAME      = TEME
TIME_SYSTEM    = UTC
MEAN_ELEMENT_THEORY = SGP/SGP4

EPOCH          = 2026-03-03T18:00:56.052864
MEAN_MOTION    = 13.77493395
ECCENTRICITY   = .0023381
INCLINATION    = 82.9464
RA_OF_ASC_NODE = 174.4607
ARG_OF_PERICENTER = 54.3401
MEAN_ANOMALY   = 55.7658

EPHEMERIS_TYPE = 0
CLASSIFICATION_TYPE = U
NORAD_CAT_ID   = 21088
ELEMENT_SET_NO = 999
REV_AT_EPOCH   = 76325
BSTAR          = .46936E-4
MEAN_MOTION_DOT = .62E-6
MEAN_MOTION_DDOT = 0

CCSDS_OMM_VERS = 2.0
CREATION_DATE  = 
ORIGINATOR     = 

OBJECT_NAME    = OKEAN-3
OBJECT_ID      = 1991-039A
CENTER_NAME    = EARTH
REF_FRAME      = TEME
TIME_SYSTEM    = UTC
MEAN_ELEMENT_THEORY = SGP/SGP4

EPOCH          = 2026-03-03T18:15:34.024608
MEAN_MOTION    = 15.04753179
ECCENTRICITY   = .0014304
INCLINATION    = 82.5199
RA_OF_ASC_NODE = 342.5859
ARG_OF_PERICENTER = 359.7728
MEAN_ANOMALY   = 0.3490

EPHEMERIS_TYPE = 0
CLASSIFICATION_TYPE = U
NORAD_CAT_ID   = 21397
ELEMENT_SET_NO = 999
REV_AT_EPOCH   = 86414
BSTAR          = .29702E-3
MEAN_MOTION_DOT = .4222E-4
MEAN_MOTION_DDOT = 0

CCSDS_OMM_VERS = 2.0
CREATION_DATE  = 
ORIGINATOR     = 

OBJECT_NAME    = COSMOS 2151
OBJECT_ID      = 1991-042A
CENTER_NAME    = EARTH
REF_FRAME      = TEME
TIME_SYSTEM    = UTC
MEAN_ELEMENT_THEORY = SGP/SGP4

EPOCH          = 2026-03-03T17:55:11.424000
MEAN_MOTION    = 15.00077480
ECCENTRICITY   = .0014137
INCLINATION    = 82.4930
RA_OF_ASC_NODE = 89.4105
ARG_OF_PERICENTER = 81.2901
MEAN_ANOMALY   = 278.9924

EPHEMERIS_TYPE = 0
CLASSIFICATION_TYPE = U
NORAD_CAT_ID   = 21422
ELEMENT_SET_NO = 999
REV_AT_EPOCH   = 86230
BSTAR          = .19337E-3
MEAN_MOTION_DOT = .244E-4
MEAN_MOTION_DDOT = 0

