DELTA 2 R/B(1)          
1 20453U 90008B   26062.72676019  .00090081  00000+0  10838-2 0  9994
2 20453  35.6034 213.9608 0086795 203.5175 156.1578 15.55053481925202
COSMOS 2058             
1 20465U 90010A   26062.82162537  .00005669  00000+0  33510-3 0  9997
2 20465  82.4666  53.2088 0009794   2.8143 357.3140 15.11257293941355
SL-14 R/B               
1 20466U 90010B   26062.68414289  .00000520  00000+0  60144-4 0  9991
2 20466  82.4992 273.0315 0018918 323.3212  36.6707 14.83562870927593
SL-14 R/B               
1 20511U 90018B   26062.56118256  .00000689  00000+0  83407-4 0  9995
2 20511  82.5192 228.8183 0017592 110.6509 249.6593 14.82136954921672
HST                     
1 20580U 90037B   26062.41753730  .00009009  00000+0  29940-3 0  9994
2 20580  28.4702  82.7831 0001695  63.3001 296.7768 15.29363841772354
SL-16 R/B               
1 20625U 90046B   26062.75908219 -.00000183  00000+0 -69916-4 0  9999
2 20625  71.0001 310.3701 0016141 307.5737  52.3919 14.15014558847558
COSMOS 2084             
1 20663U 90055A   26062.21324534  .00003603  00000+0  26164-3 0  9999
2 20663  62.7926 357.6650 0018108 188.5844 171.4949 15.05602026935345
SL-6 R/B(2)             
1 20666U 90055D   26062.78560876  .00002679  00000+0  20860-3 0  9994
2 20666  62.7819 273.9292 0023842 345.5629  14.4786 15.03560947937304
SL-8 R/B                
1 20775U 90078B   26062.52749292  .00018627  00000+0  54752-3 0  9990
2 20775  82.8989 256.8532 0363742  34.7004 327.7365 14.88816306808386
SL-8 R/B                
1 21088U 91006B   26062.75064876  .00000062  00000+0  46936-4 0  9993
2 21088  82.9464 174.4607 0023381  54.3401  55.7658 13.77493395763257
OKEAN-3                 
1 21397U 91039A   26062.76081047  .00004222  00000+0  29702-3 0  9995
2 21397  82.5199 342.5859 0014304 359.7728   0.3490 15.04753179864148
COSMOS 2151             
1 21422U 91042A   26062.74666000  .00002440  00000+0  19337-3 0  9997
2 21422  82.4930  89.4105 0014137  81.2901 278.9924 15.00077480862305
